{
  "type": "FeatureCollection",
  "features": [
    {
      "type": "Feature",
      "properties": {
        "norad_id": 46277,
        "name": "NEMO-HD",
        "group": "resource",
        "lat": 81.05025239508976,
        "lon": 0.08557548887895682,
        "alt_km": 436.50409473308264,
        "timestamp": "2025-12-20T16:47:35.949225+00:00",
        "meta_object_name": "NEMO-HD",
        "meta_object_id": "2020-061F",
        "meta_epoch": "2025-12-20T11:45:00.588096",
        "meta_mean_motion": 15.40476125,
        "meta_eccentricity": 0.0001371,
        "meta_inclination": 97.2202,
        "meta_ra_of_asc_node": 53.4894,
        "meta_arg_of_pericenter": 51.7257,
        "meta_mean_anomaly": 308.4113,
        "meta_ephemeris_type": 0,
        "meta_classification_type": "U",
        "meta_norad_cat_id": 46277,
        "meta_element_set_no": 999,
        "meta_rev_at_epoch": 29443,
        "meta_bstar": 0.0001824,
        "meta_mean_motion_dot": 7.309e-05,
        "meta_mean_motion_ddot": 0,
        "tle_line1": "1 46277U 20061F   25354.48959014  .00007309  00000+0  18240-3 0  9990",
        "tle_line2": "2 46277  97.2202  53.4894 0001371  51.7257 308.4113 15.40476125294439"
      },
      "geometry": {
        "type": "Point",
        "coordinates": [
          0.08557548887895682,
          81.05025239508976
        ]
      }
    },
    {
      "type": "Feature",
      "properties": {
        "norad_id": 46984,
        "name": "SENTINEL-6A",
        "group": "resource",
        "lat": 64.74414452929679,
        "lon": -143.74138736534027,
        "alt_km": 1336.4477285153307,
        "timestamp": "2025-12-20T16:47:35.949236+00:00",
        "meta_object_name": "SENTINEL-6A",
        "meta_object_id": "2020-086A",
        "meta_epoch": "2025-12-20T10:44:46.006080",
        "meta_mean_motion": 12.80930851,
        "meta_eccentricity": 0.0007715,
        "meta_inclination": 66.0394,
        "meta_ra_of_asc_node": 146.2981,
        "meta_arg_of_pericenter": 269.3182,
        "meta_mean_anomaly": 90.6949,
        "meta_ephemeris_type": 0,
        "meta_classification_type": "U",
        "meta_norad_cat_id": 46984,
        "meta_element_set_no": 999,
        "meta_rev_at_epoch": 23743,
        "meta_bstar": -3.1256e-05,
        "meta_mean_motion_dot": -6.8e-07,
        "meta_mean_motion_ddot": 0,
        "tle_line1": "1 46984U 20086A   25354.44775470 -.00000068  00000+0 -31256-4 0  9990",
        "tle_line2": "2 46984  66.0394 146.2981 0007715 269.3182  90.6949 12.80930851237436"
      },
      "geometry": {
        "type": "Point",
        "coordinates": [
          -143.74138736534027,
          64.74414452929679
        ]
      }
    },
    {
      "type": "Feature",
      "properties": {
        "norad_id": 48079,
        "name": "GAOFEN-12 02",
        "group": "resource",
        "lat": -78.94181292927772,
        "lon": 34.580029636579994,
        "alt_km": 636.9719530566208,
        "timestamp": "2025-12-20T16:47:35.949246+00:00",
        "meta_object_name": "GAOFEN-12 02",
        "meta_object_id": "2021-026A",
        "meta_epoch": "2025-12-20T12:17:57.359616",
        "meta_mean_motion": 14.80683589,
        "meta_eccentricity": 0.0003603,
        "meta_inclination": 97.9854,
        "meta_ra_of_asc_node": 348.4815,
        "meta_arg_of_pericenter": 85.554,
        "meta_mean_anomaly": 274.6083,
        "meta_ephemeris_type": 0,
        "meta_classification_type": "U",
        "meta_norad_cat_id": 48079,
        "meta_element_set_no": 999,
        "meta_rev_at_epoch": 25532,
        "meta_bstar": 5.1168e-05,
        "meta_mean_motion_dot": 3.41e-06,
        "meta_mean_motion_ddot": 0,
        "tle_line1": "1 48079U 21026A   25354.51246944  .00000341  00000+0  51168-4 0  9995",
        "tle_line2": "2 48079  97.9854 348.4815 0003603  85.5540 274.6083 14.80683589255323"
      },
      "geometry": {
        "type": "Point",
        "coordinates": [
          34.580029636579994,
          -78.94181292927772
        ]
      }
    },
    {
      "type": "Feature",
      "properties": {
        "norad_id": 48268,
        "name": "PLEIADES NEO 3",
        "group": "resource",
        "lat": 12.759175992552365,
        "lon": 65.2262407390248,
        "alt_km": 625.0414220278681,
        "timestamp": "2025-12-20T16:47:35.949256+00:00",
        "meta_object_name": "PLEIADES NEO 3",
        "meta_object_id": "2021-034A",
        "meta_epoch": "2025-12-20T11:52:22.831680",
        "meta_mean_motion": 14.81673753,
        "meta_eccentricity": 0.0001365,
        "meta_inclination": 97.8951,
        "meta_ra_of_asc_node": 66.8249,
        "meta_arg_of_pericenter": 90.2404,
        "meta_mean_anomaly": 269.8965,
        "meta_ephemeris_type": 0,
        "meta_classification_type": "U",
        "meta_norad_cat_id": 48268,
        "meta_element_set_no": 999,
        "meta_rev_at_epoch": 25119,
        "meta_bstar": 8.746e-05,
        "meta_mean_motion_dot": 6.36e-06,
        "meta_mean_motion_ddot": 0,
        "tle_line1": "1 48268U 21034A   25354.49470870  .00000636  00000+0  87460-4 0  9999",
        "tle_line2": "2 48268  97.8951  66.8249 0001365  90.2404 269.8965 14.81673753251196"
      },
      "geometry": {
        "type": "Point",
        "coordinates": [
          65.2262407390248,
          12.759175992552365
        ]
      }
    },
    {
      "type": "Feature",
      "properties": {
        "norad_id": 49070,
        "name": "PLEIADES NEO 4",
        "group": "resource",
        "lat": -13.087464017570365,
        "lon": -114.8256671635985,
        "alt_km": 628.810525533092,
        "timestamp": "2025-12-20T16:47:35.949266+00:00",
        "meta_object_name": "PLEIADES NEO 4",
        "meta_object_id": "2021-073E",
        "meta_epoch": "2025-12-20T11:03:44.352864",
        "meta_mean_motion": 14.81672836,
        "meta_eccentricity": 0.0001328,
        "meta_inclination": 97.8952,
        "meta_ra_of_asc_node": 66.7877,
        "meta_arg_of_pericenter": 91.1715,
        "meta_mean_anomaly": 268.965,
        "meta_ephemeris_type": 0,
        "meta_classification_type": "U",
        "meta_norad_cat_id": 49070,
        "meta_element_set_no": 999,
        "meta_rev_at_epoch": 23490,
        "meta_bstar": -1.3896e-05,
        "meta_mean_motion_dot": -1.61e-06,
        "meta_mean_motion_ddot": 0,
        "tle_line1": "1 49070U 21073E   25354.46093001 -.00000161  00000+0 -13896-4 0  9995",
        "tle_line2": "2 49070  97.8952  66.7877 0001328  91.1715 268.9650 14.81672836234901"
      },
      "geometry": {
        "type": "Point",
        "coordinates": [
          -114.8256671635985,
          -13.087464017570365
        ]
      }
    },
    {
      "type": "Feature",
      "properties": {
        "norad_id": 49260,
        "name": "LANDSAT 9",
        "group": "resource",
        "lat": -46.330961359786656,
        "lon": -126.00235780613129,
        "alt_km": 709.8806746425298,
        "timestamp": "2025-12-20T16:47:35.949276+00:00",
        "meta_object_name": "LANDSAT 9",
        "meta_object_id": "2021-088A",
        "meta_epoch": "2025-12-20T04:13:07.784256",
        "meta_mean_motion": 14.57105039,
        "meta_eccentricity": 0.0001104,
        "meta_inclination": 98.2085,
        "meta_ra_of_asc_node": 62.1788,
        "meta_arg_of_pericenter": 91.1503,
        "meta_mean_anomaly": 268.9822,
        "meta_ephemeris_type": 0,
        "meta_classification_type": "U",
        "meta_norad_cat_id": 49260,
        "meta_element_set_no": 999,
        "meta_rev_at_epoch": 22493,
        "meta_bstar": 7.8911172e-05,
        "meta_mean_motion_dot": 3.1e-06,
        "meta_mean_motion_ddot": 0,
        "tle_line1": "1 49260U 21088A   25354.17578454  .00000310  00000+0  78911-4 0  9993",
        "tle_line2": "2 49260  98.2085  62.1788 0001104  91.1503 268.9822 14.57105039224934"
      },
      "geometry": {
        "type": "Point",
        "coordinates": [
          -126.00235780613129,
          -46.330961359786656
        ]
      }
    },
    {
      "type": "Feature",
      "properties": {
        "norad_id": 51444,
        "name": "CSG-2",
        "group": "resource",
        "lat": -58.615548608026586,
        "lon": -17.21994189166488,
        "alt_km": 630.5763923751974,
        "timestamp": "2025-12-20T16:47:35.949286+00:00",
        "meta_object_name": "CSG-2",
        "meta_object_id": "2022-008A",
        "meta_epoch": "2025-12-20T12:28:32.602656",
        "meta_mean_motion": 14.82149469,
        "meta_eccentricity": 0.0001419,
        "meta_inclination": 97.8797,
        "meta_ra_of_asc_node": 175.7251,
        "meta_arg_of_pericenter": 84.6855,
        "meta_mean_anomaly": 275.452,
        "meta_ephemeris_type": 0,
        "meta_classification_type": "U",
        "meta_norad_cat_id": 51444,
        "meta_element_set_no": 999,
        "meta_rev_at_epoch": 21012,
        "meta_bstar": 5.2819e-06,
        "meta_mean_motion_dot": -1e-07,
        "meta_mean_motion_ddot": 0,
        "tle_line1": "1 51444U 22008A   25354.51982179 -.00000010  00000+0  52819-5 0  9992",
        "tle_line2": "2 51444  97.8797 175.7251 0001419  84.6855 275.4520 14.82149469210125"
      },
      "geometry": {
        "type": "Point",
        "coordinates": [
          -17.21994189166488,
          -58.615548608026586
        ]
      }
    }
  ]
}